{"type": "FeatureCollection", "features": [ {"type": "Feature", "properties": {"norad_id": 34014, "name": "COSMOS 2251 DEB", "group": "cosmos-2251-debris", "lat": -70.55418609034797, "lon": -120.85963189110552, "alt_km": 681.5690034692907, "timestamp": "2025-12-06T05:40:09.638865+00:00", "meta": {"OBJECT_NAME": "COSMOS 2251 DEB", "OBJECT_ID": "1993-036GZ", "EPOCH": "2025-12-05T06:11:12.154848", "MEAN_MOTION": 14.72986674, "ECCENTRICITY": 0.00368197, "INCLINATION": 74.0176, "RA_OF_ASC_NODE": 295.3185, "ARG_OF_PERICENTER": 77.0145, "MEAN_ANOMALY": 58.0785, "EPHEMERIS_TYPE": 0, "CLASSIFICATION_TYPE": "U", "NORAD_CAT_ID": 34014, "ELEMENT_SET_NO": 999, "REV_AT_EPOCH": 89193, "BSTAR": 0.0019914472, "MEAN_MOTION_DOT": 0.00012918, "MEAN_MOTION_DDOT": 0}, "tle": {"line1": "1 34014U 93036GZ  25339.25777957  .00012918  00000+0  19914-2 0  9990", "line2": "2 34014  74.0176 295.3185 0036819  77.0145  58.0785 14.72986674891930"}}, "geometry": {"type": "Point", "coordinates": [-120.85963189110552, -70.55418609034797]}}, {"type": "Feature", "properties": {"norad_id": 34015, "name": "COSMOS 2251 DEB", "group": "cosmos-2251-debris", "lat": -19.839823146668472, "lon": 165.91391131572854, "alt_km": 692.5688923926773, "timestamp": "2025-12-06T05:40:09.638875+00:00", "meta": {"OBJECT_NAME": "COSMOS 2251 DEB", "OBJECT_ID": "1993-036HA", "EPOCH": "2025-12-05T07:34:15.895200", "MEAN_MOTION": 14.6010471, "ECCENTRICITY": 0.00211811, "INCLINATION": 74.023, "RA_OF_ASC_NODE": 173.6052, "ARG_OF_PERICENTER": 270.8958, "MEAN_ANOMALY": 270.4016, "EPHEMERIS_TYPE": 0, "CLASSIFICATION_TYPE": "U", "NORAD_CAT_ID": 34015, "ELEMENT_SET_NO": 999, "REV_AT_EPOCH": 88422, "BSTAR": 0.0023658698, "MEAN_MOTION_DOT": 0.00011405, "MEAN_MOTION_DDOT": 0}, "tle": {"line1": "1 34015U 93036HA  25339.31546175  .00011405  00000+0  23659-2 0  9995", "line2": "2 34015  74.0230 173.6052 0021181 270.8958 270.4016 14.60104710884225"}}, "geometry": {"type": "Point", "coordinates": [165.91391131572854, -19.839823146668472]}}, {"type": "Feature", "properties": {"norad_id": 34018, "name": "COSMOS 2251 DEB", "group": "cosmos-2251-debris", "lat": 5.9648309768069785, "lon": -78.6150034223598, "alt_km": 798.5234469319648, "timestamp": "2025-12-06T05:40:09.638886+00:00", "meta": {"OBJECT_NAME": "COSMOS 2251 DEB", "OBJECT_ID": "1993-036HD", "EPOCH": "2025-12-04T16:38:53.054304", "MEAN_MOTION": 13.81053187, "ECCENTRICITY": 0.02642231, "INCLINATION": 73.8769, "RA_OF_ASC_NODE": 105.7301, "ARG_OF_PERICENTER": 143.1332, "MEAN_ANOMALY": 282.5362, "EPHEMERIS_TYPE": 0, "CLASSIFICATION_TYPE": "U", "NORAD_CAT_ID": 34018, "ELEMENT_SET_NO": 999, "REV_AT_EPOCH": 84546, "BSTAR": 0.0010704779, "MEAN_MOTION_DOT": 1.452e-05, "MEAN_MOTION_DDOT": 0}, "tle": {"line1": "1 34018U 93036HD  25338.69366961  .00001452  00000+0  10705-2 0  9990", "line2": "2 34018  73.8769 105.7301 0264223 143.1332 282.5362 13.81053187845463"}}, "geometry": {"type": "Point", "coordinates": [-78.6150034223598, 5.9648309768069785]}}, {"type": "Feature", "properties": {"norad_id": 34019, "name": "COSMOS 2251 DEB", "group": "cosmos-2251-debris", "lat": 37.77365803923568, "lon": -130.1853788172512, "alt_km": 786.5898772635674, "timestamp": "2025-12-06T05:40:09.638896+00:00", "meta": {"OBJECT_NAME": "COSMOS 2251 DEB", "OBJECT_ID": "1993-036HE", "EPOCH": "2025-12-05T07:30:36.897120", "MEAN_MOTION": 14.33878215, "ECCENTRICITY": 0.00627437, "INCLINATION": 73.9551, "RA_OF_ASC_NODE": 64.3976, "ARG_OF_PERICENTER": 246.6882, "MEAN_ANOMALY": 170.1959, "EPHEMERIS_TYPE": 0, "CLASSIFICATION_TYPE": "U", "NORAD_CAT_ID": 34019, "ELEMENT_SET_NO": 999, "REV_AT_EPOCH": 87414, "BSTAR": 0.0018772018, "MEAN_MOTION_DOT": 5.322e-05, "MEAN_MOTION_DDOT": 0}, "tle": {"line1": "1 34019U 93036HE  25339.31292705  .00005322  00000+0  18772-2 0  9997", "line2": "2 34019  73.9551  64.3976 0062743 246.6882 170.1959 14.33878215874140"}}, "geometry": {"type": "Point", "coordinates": [-130.1853788172512, 37.77365803923568]}}, {"type": "Feature", "properties": {"norad_id": 34021, "name": "COSMOS 2251 DEB", "group": "cosmos-2251-debris", "lat": -43.35260592554539, "lon": -22.279624663511804, "alt_km": 725.0542586612073, "timestamp": "2025-12-06T05:40:09.638906+00:00", "meta": {"OBJECT_NAME": "COSMOS 2251 DEB", "OBJECT_ID": "1993-036HG", "EPOCH": "2025-12-04T11:22:53.599008", "MEAN_MOTION": 14.49901335, "ECCENTRICITY": 0.0020746, "INCLINATION": 74.0346, "RA_OF_ASC_NODE": 145.347, "ARG_OF_PERICENTER": 290.1488, "MEAN_ANOMALY": 102.2802, "EPHEMERIS_TYPE": 0, "CLASSIFICATION_TYPE": "U", "NORAD_CAT_ID": 34021, "ELEMENT_SET_NO": 999, "REV_AT_EPOCH": 88510, "BSTAR": 0.00082704, "MEAN_MOTION_DOT": 3.179e-05, "MEAN_MOTION_DDOT": 0}, "tle": {"line1": "1 34021U 93036HG  25338.47423147  .00003179  00000+0  82704-3 0  9997", "line2": "2 34021  74.0346 145.3470 0020746 290.1488 102.2802 14.49901335885107"}}, "geometry": {"type": "Point", "coordinates": [-22.279624663511804, -43.35260592554539]}}, {"type": "Feature", "properties": {"norad_id": 34022, "name": "COSMOS 2251 DEB", "group": "cosmos-2251-debris", "lat": -57.79494667224596, "lon": -104.21781328136235, "alt_km": 758.4974815129217, "timestamp": "2025-12-06T05:40:09.638917+00:00", "meta": {"OBJECT_NAME": "COSMOS 2251 DEB", "OBJECT_ID": "1993-036HH", "EPOCH": "2025-12-05T07:08:55.281984", "MEAN_MOTION": 14.38944504, "ECCENTRICITY": 0.00224442, "INCLINATION": 74.0538, "RA_OF_ASC_NODE": 284.507, "ARG_OF_PERICENTER": 350.8324, "MEAN_ANOMALY": 128.8391, "EPHEMERIS_TYPE": 0, "CLASSIFICATION_TYPE": "U", "NORAD_CAT_ID": 34022, "ELEMENT_SET_NO": 999, "REV_AT_EPOCH": 88088, "BSTAR": 0.00046852686, "MEAN_MOTION_DOT": 1.423e-05, "MEAN_MOTION_DDOT": 0}, "tle": {"line1": "1 34022U 93036HH  25339.29786206  .00001423  00000+0  46853-3 0  9992", "line2": "2 34022  74.0538 284.5070 0022444 350.8324 128.8391 14.38944504880883"}}, "geometry": {"type": "Point", "coordinates": [-104.21781328136235, -57.79494667224596]}}, {"type": "Feature", "properties": {"norad_id": 34023, "name": "COSMOS 2251 DEB", "group": "cosmos-2251-debris", "lat": -0.7754442031486313, "lon": 84.00090965638034, "alt_km": 772.384246706386, "timestamp": "2025-12-06T05:40:09.638927+00:00", "meta": {"OBJECT_NAME": "COSMOS 2251 DEB", "OBJECT_ID": "1993-036HJ", "EPOCH": "2025-12-05T06:12:09.798336", "MEAN_MOTION": 14.40534388, "ECCENTRICITY": 0.00181458, "INCLINATION": 74.0249, "RA_OF_ASC_NODE": 265.5875, "ARG_OF_PERICENTER": 2.4392, "MEAN_ANOMALY": 149.6202, "EPHEMERIS_TYPE": 0, "CLASSIFICATION_TYPE": "U", "NORAD_CAT_ID": 34023, "ELEMENT_SET_NO": 999, "REV_AT_EPOCH": 88106, "BSTAR": 0.00067159351, "MEAN_MOTION_DOT": 2.116e-05, "MEAN_MOTION_DDOT": 0}, "tle": {"line1": "1 34023U 93036HJ  25339.25844674  .00002116  00000+0  67159-3 0  9995", "line2": "2 34023  74.0249 265.5875 0018145   2.4392 149.6202 14.40534388881064"}}, "geometry": {"type": "Point", "coordinates": [84.00090965638034, -0.7754442031486313]}}, {"type": "Feature", "properties": {"norad_id": 34024, "name": "COSMOS 2251 DEB", "group": "cosmos-2251-debris", "lat": -46.913307826364, "lon": -49.89330961891787, "alt_km": 775.0632366381269, "timestamp": "2025-12-06T05:40:09.638937+00:00", "meta": {"OBJECT_NAME": "COSMOS 2251 DEB", "OBJECT_ID": "1993-036HK", "EPOCH": "2025-12-05T06:33:02.923200", "MEAN_MOTION": 14.35382792, "ECCENTRICITY": 0.00206944, "INCLINATION": 74.0462, "RA_OF_ASC_NODE": 329.6796, "ARG_OF_PERICENTER": 22.3549, "MEAN_ANOMALY": 352.9252, "EPHEMERIS_TYPE": 0, "CLASSIFICATION_TYPE": "U", "NORAD_CAT_ID": 34024, "ELEMENT_SET_NO": 999, "REV_AT_EPOCH": 87917, "BSTAR": 0.00034222223, "MEAN_MOTION_DOT": 9.58e-06, "MEAN_MOTION_DDOT": 0}, "tle": {"line1": "1 34024U 93036HK  25339.27295050  .00000958  00000+0  34222-3 0  9993", "line2": "2 34024  74.0462 329.6796 0020694  22.3549 352.9252 14.35382792879170"}}, "geometry": {"type": "Point", "coordinates": [-49.89330961891787, -46.913307826364]}}, {"type": "Feature", "properties": {"norad_id": 34026, "name": "COSMOS 2251 DEB", "group": "cosmos-2251-debris", "lat": 35.075209915510904, "lon": -0.09461447027972782, "alt_km": 1273.2273286636082, "timestamp": "2025-12-06T05:40:09.638947+00:00", "meta": {"OBJECT_NAME": "COSMOS 2251 DEB", "OBJECT_ID": "1993-036HM", "EPOCH": "2025-12-05T06:42:56.670912", "MEAN_MOTION": 13.65287349, "ECCENTRICITY": 0.03511318, "INCLINATION": 73.7671, "RA_OF_ASC_NODE": 349.6913, "ARG_OF_PERICENTER": 220.7928, "MEAN_ANOMALY": 156.8864, "EPHEMERIS_TYPE": 0, "CLASSIFICATION_TYPE": "U", "NORAD_CAT_ID": 34026, "ELEMENT_SET_NO": 999, "REV_AT_EPOCH": 83430, "BSTAR": 0.0015859365, "MEAN_MOTION_DOT": 1.94e-05, "MEAN_MOTION_DDOT": 0}, "tle": {"line1": "1 34026U 93036HM  25339.27982258  .00001940  00000+0  15859-2 0  9994", "line2": "2 34026  73.7671 349.6913 0351131 220.7928 156.8864 13.65287349834301"}}, "geometry": {"type": "Point", "coordinates": [-0.09461447027972782, 35.075209915510904]}}, {"type": "Feature", "properties": {"norad_id": 34028, "name": "COSMOS 2251 DEB", "group": "cosmos-2251-debris", "lat": 12.186014912060664, "lon": 0.8017851213315429, "alt_km": 1393.4267351372482, "timestamp": "2025-12-06T05:40:09.638958+00:00", "meta": {"OBJECT_NAME": "COSMOS 2251 DEB", "OBJECT_ID": "1993-036HP", "EPOCH": "2025-12-05T02:37:44.962752", "MEAN_MOTION": 13.20617068, "ECCENTRICITY": 0.05439971, "INCLINATION": 73.8836, "RA_OF_ASC_NODE": 358.9489, "ARG_OF_PERICENTER": 138.1005, "MEAN_ANOMALY": 285.4731, "EPHEMERIS_TYPE": 0, "CLASSIFICATION_TYPE": "U", "NORAD_CAT_ID": 34028, "ELEMENT_SET_NO": 999, "REV_AT_EPOCH": 80907, "BSTAR": 0.00026986177, "MEAN_MOTION_DOT": 2.21e-06, "MEAN_MOTION_DDOT": 0}, "tle": {"line1": "1 34028U 93036HP  25339.10954818  .00000221  00000+0  26986-3 0  9994", "line2": "2 34028  73.8836 358.9489 0543997 138.1005 285.4731 13.20617068809073"}}, "geometry": {"type": "Point", "coordinates": [0.8017851213315429, 12.186014912060664]}}]}